H1 CPF 01  gfz 2021 08 24 00  7361 terrasarx 
H2 0702601  6201 31698    2021 08 24 00 59 42 2021 08 29 00 00 42   120 1 1  0 0 0
H9
10 0 59452  62622.000000  0    2916102.568   1295270.605  -6112144.394
10 0 59452  62742.000000  0    3712435.772   1332660.117  -5654979.718
10 0 59452  62862.000000  0    4444675.105   1333546.622  -5098974.513
10 0 59452  62982.000000  0    5099407.568   1299130.717  -4453759.407
10 0 59452  63102.000000  0    5664565.096   1231448.273  -3730540.732
10 0 59452  63222.000000  0    6129655.410   1133312.637  -2941914.824
10 0 59452  63342.000000  0    6485968.050   1008239.082  -2101655.525
10 0 59452  63462.000000  0    6726750.644    860353.325  -1224475.978
10 0 59452  63582.000000  0    6847348.541    694285.124   -325768.836
10 0 59452  63702.000000  0    6845303.426    515050.177    578668.868
10 0 59452  63822.000000  0    6720409.609    327923.597   1472919.862
10 0 59452  63942.000000  0    6474725.994    138306.348   2341235.784
10 0 59452  64062.000000  0    6112540.491    -48410.119   3168324.079
10 0 59452  64182.000000  0    5640289.780   -226978.811   3939624.707
10 0 59452  64302.000000  0    5066436.305   -392426.338   4641570.557
10 0 59452  64422.000000  0    4401308.287   -540174.922   5261829.034
10 0 59452  64542.000000  0    3656902.096   -666154.015   5789517.974
10 0 59452  64662.000000  0    2846656.664   -766897.582   6215392.083
10 0 59452  64782.000000  0    1985203.782   -839626.709   6531999.491
10 0 59452  64902.000000  0    1088099.575   -882315.530   6733806.966
10 0 59452  65022.000000  0     171539.677   -893739.431   6817291.426
10 0 59452  65142.000000  0    -747934.046   -873504.188   6780996.253
10 0 59452  65262.000000  0   -1653730.892   -822056.386   6625554.270
10 0 59452  65382.000000  0   -2529509.096   -740673.976   6353677.028
10 0 59452  65502.000000  0   -3359469.283   -631437.613   5970111.195
10 0 59452  65622.000000  0   -4128641.353   -497183.105   5481562.254
10 0 59452  65742.000000  0   -4823159.692   -341436.328   4896583.962
10 0 59452  65862.000000  0   -5430520.363   -168331.115   4225433.727
10 0 59452  65982.000000  0   -5939814.837     17488.111   3479896.427
10 0 59452  66102.000000  0   -6341934.930    210977.193   2673079.803
10 0 59452  66222.000000  0   -6629746.316    406814.569   1819184.057
10 0 59452  66342.000000  0   -6798224.515    599531.627    933248.031
10 0 59452  66462.000000  0   -6844549.627    783647.635     30877.496
10 0 59452  66582.000000  0   -6768156.369    953806.498   -872038.808
10 0 59452  66702.000000  0   -6570737.419   1104911.303  -1759618.161
10 0 59452  66822.000000  0   -6256202.312   1232252.968  -2616270.097
10 0 59452  66942.000000  0   -5830594.034   1331631.417  -3426977.679
10 0 59452  67062.000000  0   -5301960.293   1399463.941  -4177565.295
10 0 59452  67182.000000  0   -4680188.188   1432878.966  -4854945.204
10 0 59452  67302.000000  0   -3976806.846   1429793.597  -5447340.786
10 0 59452  67422.000000  0   -3204763.444   1388973.209  -5944482.398
10 0 59452  67542.000000  0   -2378178.320   1310071.782  -6337775.088
10 0 59452  67662.000000  0   -1512083.145   1193653.177  -6620436.134
10 0 59452  67782.000000  0    -622147.156   1041193.301  -6787600.049
10 0 59452  67902.000000  0     275601.660    855062.460  -6836392.134
10 0 59452  68022.000000  0    1165057.126    638489.501  -6765973.105
10 0 59452  68142.000000  0    2030317.896    395506.821  -6577554.159
10 0 59452  68262.000000  0    2855965.786    130877.406  -6274377.673
10 0 59452  68382.000000  0    3627336.200   -149994.501  -5861667.524
10 0 59452  68502.000000  0    4330775.934   -441169.189  -5346547.069
10 0 59452  68622.000000  0    4953885.683   -736290.998  -4737928.281
10 0 59452  68742.000000  0    5485745.187  -1028720.799  -4046369.190
10 0 59452  68862.000000  0    5917113.302  -1311678.322  -3283900.249
10 0 59452  68982.000000  0    6240599.565  -1578391.939  -2463822.514
10 0 59452  69102.000000  0    6450803.111  -1822252.743  -1600479.748
10 0 59452  69222.000000  0    6544414.386  -2036968.944   -709007.650
10 0 59452  69342.000000  0    6520276.691  -2216716.479    194934.524
10 0 59452  69462.000000  0    6379405.542  -2356282.687   1095445.388
10 0 59452  69582.000000  0    6124963.948  -2451198.131   1976669.844
10 0 59452  69702.000000  0    5762193.736  -2497854.188   2823087.410
10 0 59452  69822.000000  0    5298305.353  -2493602.382   3619794.143
10 0 59452  69942.000000  0    4742327.490  -2436832.851   4352770.916
10 0 59452  70062.000000  0    4104924.364  -2327030.474   5009132.101
10 0 59452  70182.000000  0    3398183.851  -2164808.612   5577353.947
10 0 59452  70302.000000  0    2635378.481  -1951918.277   6047474.829
10 0 59452  70422.000000  0    1830709.455  -1691232.882   6411264.438
10 0 59452  70542.000000  0     999037.559  -1386710.281   6662362.052
10 0 59452  70662.000000  0     155605.629  -1043332.001   6796381.949
10 0 59452  70782.000000  0    -684241.578   -667020.548   6810984.504
10 0 59452  70902.000000  0   -1505335.376   -264537.099   6705913.713
10 0 59452  71022.000000  0   -2292955.759    156639.623   6483001.427
10 0 59452  71142.000000  0   -3033094.388    588451.597   6146137.951
10 0 59452  71262.000000  0   -3712704.685   1022414.410   5701209.144
10 0 59452  71382.000000  0   -4319935.619   1449782.416   5156000.126
10 0 59452  71502.000000  0   -4844344.571   1861723.744   4520065.068
10 0 59452  71622.000000  0   -5277084.482   2249502.365   3804564.414
10 0 59452  71742.000000  0   -5611060.920   2604662.462   3022071.695
10 0 59452  71862.000000  0   -5841055.976   2919211.394   2186353.626
10 0 59452  71982.000000  0   -5963816.998   3185797.304   1312126.174
10 0 59452  72102.000000  0   -5978106.494   3397877.155    414789.309
10 0 59452  72222.000000  0   -5884709.716   3549869.337   -489852.323
10 0 59452  72342.000000  0   -5686402.070   3637287.554  -1385876.239
10 0 59452  72462.000000  0   -5387877.174   3656853.447  -2257531.757
10 0 59452  72582.000000  0   -4995634.333   3606583.351  -3089525.518
10 0 59452  72702.000000  0   -4517831.440   3485848.069  -3867294.582
10 0 59452  72822.000000  0   -3964106.862   3295404.202  -4577261.868
10 0 59452  72942.000000  0   -3345377.032   3037397.554  -5207069.619
10 0 59452  73062.000000  0   -2673614.354   2715338.793  -5745786.460
10 0 59452  73182.000000  0   -1961612.006   2334053.540  -6184088.009
10 0 59452  73302.000000  0   -1222737.122   1899606.396  -6514407.692
10 0 59452  73422.000000  0    -470680.747   1419201.900  -6731054.900
10 0 59452  73542.000000  0     280791.950    901064.531  -6830302.889
10 0 59452  73662.000000  0    1018086.973    354299.972  -6810446.063
10 0 59452  73782.000000  0    1728022.624   -211261.732  -6671827.543
10 0 59452  73902.000000  0    2398059.760   -785238.926  -6416832.390
10 0 59452  74022.000000  0    3016518.711  -1356883.818  -6049851.489
10 0 59452  74142.000000  0    3572780.773  -1915278.442  -5577213.414
10 0 59452  74262.000000  0    4057471.773  -2449539.176  -5007087.179
10 0 59452  74382.000000  0    4462624.702  -2949028.070  -4349351.733
10 0 59452  74502.000000  0    4781815.835  -3403564.562  -3615434.799
10 0 59452  74622.000000  0    5010274.024  -3803633.693  -2818123.691
10 0 59452  74742.000000  0    5144960.413  -4140587.529  -1971348.296
10 0 59452  74862.000000  0    5184614.475  -4406833.651  -1089939.529
10 0 59452  74982.000000  0    5129765.552  -4596006.983   -189367.778
10 0 59452  75102.000000  0    4982707.693  -4703120.067    714534.042
10 0 59452  75222.000000  0    4747438.398  -4724686.251   1605857.118
10 0 59452  75342.000000  0    4429562.306  -4658812.519   2468905.799
10 0 59452  75462.000000  0    4036163.197  -4505260.141   3288482.030
10 0 59452  75582.000000  0    3575647.363  -4265471.902   4050160.007
10 0 59452  75702.000000  0    3057561.405  -3942564.889   4740544.976
10 0 59452  75822.000000  0    2492390.511  -3541288.542   5347510.246
10 0 59452  75942.000000  0    1891342.573  -3067951.124   5860409.016
10 0 59452  76062.000000  0    1266121.673  -2530314.751   6270257.696
10 0 59452  76182.000000  0     628697.494  -1937463.143   6569886.929
10 0 59452  76302.000000  0      -8925.360  -1299644.802   6754060.696
10 0 59452  76422.000000  0    -634933.031   -628093.688   6819562.495
10 0 59452  76542.000000  0   -1237920.169     65169.776   6765247.728
10 0 59452  76662.000000  0   -1807096.951    767553.454   6592062.426
10 0 59452  76782.000000  0   -2332481.610   1466121.453   6303027.809
10 0 59452  76902.000000  0   -2805076.025   2147831.381   5903190.963
10 0 59452  77022.000000  0   -3217021.390   2799777.839   5399542.642
10 0 59452  77142.000000  0   -3561732.429   3409438.596   4800901.554
10 0 59452  77262.000000  0   -3834007.095   3964918.115   4117765.727
10 0 59452  77382.000000  0   -4030109.032   4455184.723   3362132.904
10 0 59452  77502.000000  0   -4147820.974   4870295.891   2547291.539
10 0 59452  77622.000000  0   -4186466.933   5201605.205   1687584.972
10 0 59452  77742.000000  0   -4146902.796   5441946.036    798155.037
10 0 59452  77862.000000  0   -4031476.642   5585788.067   -105330.419
10 0 59452  77982.000000  0   -3843958.363   5629363.004  -1006962.606
10 0 59452  78102.000000  0   -3589438.912   5570753.525  -1890882.727
10 0 59452  78222.000000  0   -3274202.659   5409943.376  -2741569.697
10 0 59452  78342.000000  0   -2905576.567   5148829.961  -3544118.261
10 0 59452  78462.000000  0   -2491762.035   4791197.140  -4284502.579
10 0 59452  78582.000000  0   -2041652.648   4342651.400  -4949819.241
10 0 59452  78702.000000  0   -1564643.333   3810524.727  -5528505.130
10 0 59452  78822.000000  0   -1070435.573   3203747.087  -6010530.536
10 0 59452  78942.000000  0    -568841.381   2532688.924  -6387563.638
10 0 59452  79062.000000  0     -69590.758   1808978.789  -6653102.535
99
